{
  "type": "FeatureCollection",
  "features": [
    {
      "type": "Feature",
      "properties": {
        "norad_id": 34389,
        "name": "COSMOS 2251 DEB",
        "group": "cosmos-2251-debris",
        "lat": -73.77376480953842,
        "lon": 166.47154469185585,
        "alt_km": 768.4973735111234,
        "timestamp": "2025-12-03T17:47:51.112404+00:00",
        "meta_object_name": "COSMOS 2251 DEB",
        "meta_object_id": "1993-036QE",
        "meta_epoch": "2025-12-03T05:35:36.167136",
        "meta_mean_motion": 14.41490102,
        "meta_eccentricity": 0.002844,
        "meta_inclination": 74.0187,
        "meta_ra_of_asc_node": 267.441,
        "meta_arg_of_pericenter": 21.5357,
        "meta_mean_anomaly": 128.2079,
        "meta_ephemeris_type": 0,
        "meta_classification_type": "U",
        "meta_norad_cat_id": 34389,
        "meta_element_set_no": 999,
        "meta_rev_at_epoch": 87875,
        "meta_bstar": 0.00063199,
        "meta_mean_motion_dot": 2.036e-05,
        "meta_mean_motion_ddot": 0,
        "tle_line1": "1 34389U 93036QE  25337.23305749  .00002036  00000+0  63199-3 0  9992",
        "tle_line2": "2 34389  74.0187 267.4410 0028440  21.5357 128.2079 14.41490102878751"
      },
      "geometry": {
        "type": "Point",
        "coordinates": [
          166.47154469185585,
          -73.77376480953842
        ]
      }
    },
    {
      "type": "Feature",
      "properties": {
        "norad_id": 34396,
        "name": "COSMOS 2251 DEB",
        "group": "cosmos-2251-debris",
        "lat": -32.07189352954682,
        "lon": -28.058628965547086,
        "alt_km": 649.5255669766993,
        "timestamp": "2025-12-03T17:47:51.112415+00:00",
        "meta_object_name": "COSMOS 2251 DEB",
        "meta_object_id": "1993-036QM",
        "meta_epoch": "2025-12-03T10:26:40.865280",
        "meta_mean_motion": 14.73979832,
        "meta_eccentricity": 0.0007503,
        "meta_inclination": 74.0271,
        "meta_ra_of_asc_node": 142.1998,
        "meta_arg_of_pericenter": 184.3041,
        "meta_mean_anomaly": 204.0554,
        "meta_ephemeris_type": 0,
        "meta_classification_type": "U",
        "meta_norad_cat_id": 34396,
        "meta_element_set_no": 999,
        "meta_rev_at_epoch": 88209,
        "meta_bstar": 0.0028239,
        "meta_mean_motion_dot": 0.00018583,
        "meta_mean_motion_ddot": 0,
        "tle_line1": "1 34396U 93036QM  25337.43519520  .00018583  00000+0  28239-2 0  9995",
        "tle_line2": "2 34396  74.0271 142.1998 0007503 184.3041 204.0554 14.73979832882098"
      },
      "geometry": {
        "type": "Point",
        "coordinates": [
          -28.058628965547086,
          -32.07189352954682
        ]
      }
    },
    {
      "type": "Feature",
      "properties": {
        "norad_id": 34400,
        "name": "COSMOS 2251 DEB",
        "group": "cosmos-2251-debris",
        "lat": -50.26797449319769,
        "lon": -116.54421868676998,
        "alt_km": 423.37328818758215,
        "timestamp": "2025-12-03T17:47:51.112426+00:00",
        "meta_object_name": "COSMOS 2251 DEB",
        "meta_object_id": "1993-036QR",
        "meta_epoch": "2025-12-03T05:56:19.095936",
        "meta_mean_motion": 15.48273281,
        "meta_eccentricity": 0.0007816,
        "meta_inclination": 73.9695,
        "meta_ra_of_asc_node": 44.3022,
        "meta_arg_of_pericenter": 269.3457,
        "meta_mean_anomaly": 90.686,
        "meta_ephemeris_type": 0,
        "meta_classification_type": "U",
        "meta_norad_cat_id": 34400,
        "meta_element_set_no": 999,
        "meta_rev_at_epoch": 89827,
        "meta_bstar": 0.0040315,
        "meta_mean_motion_dot": 0.00219083,
        "meta_mean_motion_ddot": 0,
        "tle_line1": "1 34400U 93036QR  25337.24744324  .00219083  00000+0  40315-2 0  9999",
        "tle_line2": "2 34400  73.9695  44.3022 0007816 269.3457  90.6860 15.48273281898279"
      },
      "geometry": {
        "type": "Point",
        "coordinates": [
          -116.54421868676998,
          -50.26797449319769
        ]
      }
    },
    {
      "type": "Feature",
      "properties": {
        "norad_id": 34409,
        "name": "COSMOS 2251 DEB",
        "group": "cosmos-2251-debris",
        "lat": -73.93747184579675,
        "lon": -133.1218335538222,
        "alt_km": 744.5167947816444,
        "timestamp": "2025-12-03T17:47:51.112436+00:00",
        "meta_object_name": "COSMOS 2251 DEB",
        "meta_object_id": "1993-036RA",
        "meta_epoch": "2025-12-02T18:19:26.272128",
        "meta_mean_motion": 14.57987413,
        "meta_eccentricity": 0.00794454,
        "meta_inclination": 74.0627,
        "meta_ra_of_asc_node": 325.7849,
        "meta_arg_of_pericenter": 42.8423,
        "meta_mean_anomaly": 134.3606,
        "meta_ephemeris_type": 0,
        "meta_classification_type": "U",
        "meta_norad_cat_id": 34409,
        "meta_element_set_no": 999,
        "meta_rev_at_epoch": 89047,
        "meta_bstar": 0.00030311841,
        "meta_mean_motion_dot": 1.423e-05,
        "meta_mean_motion_ddot": 0,
        "tle_line1": "1 34409U 93036RA  25336.76349852  .00001423  00000+0  30312-3 0  9995",
        "tle_line2": "2 34409  74.0627 325.7849 0079445  42.8423 134.3606 14.57987413890478"
      },
      "geometry": {
        "type": "Point",
        "coordinates": [
          -133.1218335538222,
          -73.93747184579675
        ]
      }
    },
    {
      "type": "Feature",
      "properties": {
        "norad_id": 34410,
        "name": "COSMOS 2251 DEB",
        "group": "cosmos-2251-debris",
        "lat": 21.893169660215403,
        "lon": 94.15826316949422,
        "alt_km": 501.047473088619,
        "timestamp": "2025-12-03T17:47:51.112447+00:00",
        "meta_object_name": "COSMOS 2251 DEB",
        "meta_object_id": "1993-036RB",
        "meta_epoch": "2025-12-03T06:41:33.694080",
        "meta_mean_motion": 15.17454406,
        "meta_eccentricity": 0.002077,
        "meta_inclination": 73.7389,
        "meta_ra_of_asc_node": 281.8776,
        "meta_arg_of_pericenter": 123.4195,
        "meta_mean_anomaly": 26.8425,
        "meta_ephemeris_type": 0,
        "meta_classification_type": "U",
        "meta_norad_cat_id": 34410,
        "meta_element_set_no": 999,
        "meta_rev_at_epoch": 89630,
        "meta_bstar": 0.003017,
        "meta_mean_motion_dot": 0.00061222,
        "meta_mean_motion_ddot": 0,
        "tle_line1": "1 34410U 93036RB  25337.27886220  .00061222  00000+0  30170-2 0  9993",
        "tle_line2": "2 34410  73.7389 281.8776 0020770 123.4195  26.8425 15.17454406896301"
      },
      "geometry": {
        "type": "Point",
        "coordinates": [
          94.15826316949422,
          21.893169660215403
        ]
      }
    },
    {
      "type": "Feature",
      "properties": {
        "norad_id": 34412,
        "name": "COSMOS 2251 DEB",
        "group": "cosmos-2251-debris",
        "lat": 61.51329148668702,
        "lon": 129.48525025972313,
        "alt_km": 619.3046546288297,
        "timestamp": "2025-12-03T17:47:51.112458+00:00",
        "meta_object_name": "COSMOS 2251 DEB",
        "meta_object_id": "1993-036RD",
        "meta_epoch": "2025-12-03T10:39:06.052320",
        "meta_mean_motion": 14.46988265,
        "meta_eccentricity": 0.018713,
        "meta_inclination": 73.9477,
        "meta_ra_of_asc_node": 342.0894,
        "meta_arg_of_pericenter": 79.4118,
        "meta_mean_anomaly": 282.8057,
        "meta_ephemeris_type": 0,
        "meta_classification_type": "U",
        "meta_norad_cat_id": 34412,
        "meta_element_set_no": 999,
        "meta_rev_at_epoch": 87516,
        "meta_bstar": 0.0011168,
        "meta_mean_motion_dot": 5.031e-05,
        "meta_mean_motion_ddot": 0,
        "tle_line1": "1 34412U 93036RD  25337.44382005  .00005031  00000+0  11168-2 0  9998",
        "tle_line2": "2 34412  73.9477 342.0894 0187130  79.4118 282.8057 14.46988265875165"
      },
      "geometry": {
        "type": "Point",
        "coordinates": [
          129.48525025972313,
          61.51329148668702
        ]
      }
    },
    {
      "type": "Feature",
      "properties": {
        "norad_id": 34413,
        "name": "COSMOS 2251 DEB",
        "group": "cosmos-2251-debris",
        "lat": 65.52913195823973,
        "lon": 62.230490779435634,
        "alt_km": 809.5020104659525,
        "timestamp": "2025-12-03T17:47:51.112469+00:00",
        "meta_object_name": "COSMOS 2251 DEB",
        "meta_object_id": "1993-036RE",
        "meta_epoch": "2025-12-03T07:48:21.134304",
        "meta_mean_motion": 14.28961442,
        "meta_eccentricity": 0.0090642,
        "meta_inclination": 74.0314,
        "meta_ra_of_asc_node": 281.9739,
        "meta_arg_of_pericenter": 0.215,
        "meta_mean_anomaly": 126.7484,
        "meta_ephemeris_type": 0,
        "meta_classification_type": "U",
        "meta_norad_cat_id": 34413,
        "meta_element_set_no": 999,
        "meta_rev_at_epoch": 86996,
        "meta_bstar": 0.0025562,
        "meta_mean_motion_dot": 6.734e-05,
        "meta_mean_motion_ddot": 0,
        "tle_line1": "1 34413U 93036RE  25337.32524461  .00006734  00000+0  25562-2 0  9994",
        "tle_line2": "2 34413  74.0314 281.9739 0090642   0.2150 126.7484 14.28961442869965"
      },
      "geometry": {
        "type": "Point",
        "coordinates": [
          62.230490779435634,
          65.52913195823973
        ]
      }
    }
  ]
}